{
"type": "FeatureCollection",
"name": "pairs_poly_4326",
"crs": { "type": "name", "properties": { "name": "urn:ogc:def:crs:OGC:1.3:CRS84" } },
"features": [
{ "type": "Feature", "properties": { "count": 10.0, "poly_id": 66, "landcover": 10.0, "elv": 1604.113037109375 }, "geometry": { "type": "MultiPolygon", "coordinates": [ [ [ [ -82.931459647870085, 9.003298165047404 ], [ -82.931459623876592, 9.003293645088856 ], [ -82.93146417032824, 9.003293621235157 ], [ -82.931464194321791, 9.003298141193691 ], [ -82.931459647870085, 9.003298165047404 ] ] ] ] } },
{ "type": "Feature", "properties": { "count": 10.0, "poly_id": 18, "landcover": 10.0, "elv": 315.7509765625 }, "geometry": { "type": "MultiPolygon", "coordinates": [ [ [ [ -83.416953626260437, 9.124333156872314 ], [ -83.416953595828687, 9.124328638406729 ], [ -83.416958142330515, 9.124328608162617 ], [ -83.416958172762321, 9.124333126628187 ], [ -83.416953626260437, 9.124333156872314 ] ] ] ] } },
{ "type": "Feature", "properties": { "count": 10.0, "poly_id": 28, "landcover": 10.0, "elv": 530.1776123046875 }, "geometry": { "type": "MultiPolygon", "coordinates": [ [ [ [ -83.140560482959401, 8.74751028203775 ], [ -83.140560457136843, 8.747505762607627 ], [ -83.140564999847555, 8.747505736917386 ], [ -83.14056502567017, 8.747510256347494 ], [ -83.140560482959401, 8.74751028203775 ] ] ] ] } },
{ "type": "Feature", "properties": { "count": 10.0, "poly_id": 51, "landcover": 10.0, "elv": 1243.6307373046875 }, "geometry": { "type": "MultiPolygon", "coordinates": [ [ [ [ -82.91111684483991, 8.973571416233966 ], [ -82.911116821178709, 8.973566896213974 ], [ -82.91112136731418, 8.97356687268867 ], [ -82.911121390975453, 8.973571392708649 ], [ -82.91111684483991, 8.973571416233966 ] ] ] ] } },
{ "type": "Feature", "properties": { "count": 10.0, "poly_id": 21, "landcover": 10.0, "elv": 554.96820068359375 }, "geometry": { "type": "MultiPolygon", "coordinates": [ [ [ [ -83.381381228851993, 9.066817961568528 ], [ -83.381381199060058, 9.066813442970448 ], [ -83.38138574495504, 9.06681341335738 ], [ -83.381385774747031, 9.066817931955452 ], [ -83.381381228851993, 9.066817961568528 ] ] ] ] } },
{ "type": "Feature", "properties": { "count": 10.0, "poly_id": 59, "landcover": 10.0, "elv": 1315.57861328125 }, "geometry": { "type": "MultiPolygon", "coordinates": [ [ [ [ -82.861290154632528, 8.938025358093347 ], [ -82.861290131680761, 8.938020837934417 ], [ -82.861294677505697, 8.938020815112228 ], [ -82.86129470045752, 8.938025335271146 ], [ -82.861290154632528, 8.938025358093347 ] ] ] ] } },
{ "type": "Feature", "properties": { "count": 10.0, "poly_id": 19, "landcover": 10.0, "elv": 78.865264892578125 }, "geometry": { "type": "MultiPolygon", "coordinates": [ [ [ [ -83.065667971131674, 8.61016295236003 ], [ -83.065667946609395, 8.61015843267913 ], [ -83.065672487888421, 8.610158408273463 ], [ -83.065672512410757, 8.610162927954347 ], [ -83.065667971131674, 8.61016295236003 ] ] ] ] } },
{ "type": "Feature", "properties": { "count": 10.0, "poly_id": 15, "landcover": 10.0, "elv": 120.85382843017578 }, "geometry": { "type": "MultiPolygon", "coordinates": [ [ [ [ -83.079054827633669, 8.616599252362839 ], [ -83.079054802933811, 8.616594732721909 ], [ -83.079059344250965, 8.616594708139932 ], [ -83.07905936895088, 8.616599227780847 ], [ -83.079054827633669, 8.616599252362839 ] ] ] ] } },
{ "type": "Feature", "properties": { "count": 10.0, "poly_id": 4, "landcover": 10.0, "elv": 66.478485107421875 }, "geometry": { "type": "MultiPolygon", "coordinates": [ [ [ [ -83.100284731670627, 8.66150007400295 ], [ -83.100284706586663, 8.661495554434074 ], [ -83.100289248379212, 8.66149552947283 ], [ -83.100289273463233, 8.661500049041694 ], [ -83.100284731670627, 8.66150007400295 ] ] ] ] } },
{ "type": "Feature", "properties": { "count": 10.0, "poly_id": 70, "landcover": 10.0, "elv": 1654.68603515625 }, "geometry": { "type": "MultiPolygon", "coordinates": [ [ [ [ -82.965400760633884, 9.02454329948414 ], [ -82.965400736160362, 9.024538779622473 ], [ -82.965405282785468, 9.024538755292983 ], [ -82.965405307259061, 9.024543275154642 ], [ -82.965400760633884, 9.02454329948414 ] ] ] ] } },
{ "type": "Feature", "properties": { "count": 10.0, "poly_id": 63, "landcover": 10.0, "elv": 1695.575439453125 }, "geometry": { "type": "MultiPolygon", "coordinates": [ [ [ [ -83.021937084318409, 9.085254224406064 ], [ -83.021937058968945, 9.085249704715578 ], [ -83.021941606199704, 9.085249679519627 ], [ -83.021941631549225, 9.085254199210098 ], [ -83.021937084318409, 9.085254224406064 ] ] ] ] } },
{ "type": "Feature", "properties": { "count": 10.0, "poly_id": 8, "landcover": 10.0, "elv": 70.377403259277344 }, "geometry": { "type": "MultiPolygon", "coordinates": [ [ [ [ -83.326409337872875, 8.742075384134182 ], [ -83.326409309827199, 8.742070865278155 ], [ -83.326413851893733, 8.742070837375785 ], [ -83.326413879939452, 8.742075356231794 ], [ -83.326409337872875, 8.742075384134182 ] ] ] ] } },
{ "type": "Feature", "properties": { "count": 30.0, "poly_id": 33, "landcover": 30.0, "elv": 801.8660888671875 }, "geometry": { "type": "MultiPolygon", "coordinates": [ [ [ [ -83.404980319011173, 9.005931820578173 ], [ -83.404980289129568, 9.005927302043427 ], [ -83.404984834182599, 9.005927272336136 ], [ -83.404984864064275, 9.005931790870866 ], [ -83.404980319011173, 9.005931820578173 ] ] ] ] } },
{ "type": "Feature", "properties": { "count": 10.0, "poly_id": 3, "landcover": 10.0, "elv": 62.679660797119141 }, "geometry": { "type": "MultiPolygon", "coordinates": [ [ [ [ -83.314658667789502, 8.513300824882418 ], [ -83.314658640626533, 8.513296305934899 ], [ -83.314663179998036, 8.51329627889414 ], [ -83.314663207161033, 8.513300797841644 ], [ -83.314658667789502, 8.513300824882418 ] ] ] ] } },
{ "type": "Feature", "properties": { "count": 10.0, "poly_id": 10, "landcover": 10.0, "elv": 52.494411468505859 }, "geometry": { "type": "MultiPolygon", "coordinates": [ [ [ [ -83.50864278367203, 8.971351686158744 ], [ -83.508642752624837, 8.97134716796856 ], [ -83.50864729689178, 8.971347137099523 ], [ -83.508647327939016, 8.971351655289691 ], [ -83.50864278367203, 8.971351686158744 ] ] ] ] } },
{ "type": "Feature", "properties": { "count": 10.0, "poly_id": 27, "landcover": 10.0, "elv": 522.27349853515625 }, "geometry": { "type": "MultiPolygon", "coordinates": [ [ [ [ -83.421024845421485, 9.039987788529562 ], [ -83.42102481522501, 9.039983270056826 ], [ -83.42102936065028, 9.039983240039371 ], [ -83.421029390846826, 9.03998775851209 ], [ -83.421024845421485, 9.039987788529562 ] ] ] ] } },
{ "type": "Feature", "properties": { "count": 30.0, "poly_id": 1, "landcover": 30.0, "elv": 19.971303939819336 }, "geometry": { "type": "MultiPolygon", "coordinates": [ [ [ [ -83.411701015931996, 8.43896361903194 ], [ -83.411700987881588, 8.438959100385166 ], [ -83.411705526061951, 8.438959072455477 ], [ -83.411705554112402, 8.438963591102235 ], [ -83.411701015931996, 8.43896361903194 ] ] ] ] } },
{ "type": "Feature", "properties": { "count": 10.0, "poly_id": 56, "landcover": 10.0, "elv": 1659.1976318359375 }, "geometry": { "type": "MultiPolygon", "coordinates": [ [ [ [ -83.042356072963386, 9.125547274068492 ], [ -83.042356047242563, 9.125542754445494 ], [ -83.042360594924659, 9.125542728883341 ], [ -83.042360620645539, 9.125547248506326 ], [ -83.042356072963386, 9.125547274068492 ] ] ] ] } },
{ "type": "Feature", "properties": { "count": 30.0, "poly_id": 5, "landcover": 30.0, "elv": -0.15786492824554443 }, "geometry": { "type": "MultiPolygon", "coordinates": [ [ [ [ -83.398869814219267, 8.433619744104696 ], [ -83.39886978633595, 8.433615225413911 ], [ -83.398874324496902, 8.433615197650191 ], [ -83.39887435238029, 8.43361971634096 ], [ -83.398869814219267, 8.433619744104696 ] ] ] ] } },
{ "type": "Feature", "properties": { "count": 10.0, "poly_id": 26, "landcover": 10.0, "elv": 419.90045166015625 }, "geometry": { "type": "MultiPolygon", "coordinates": [ [ [ [ -83.163932285247142, 9.060305999624731 ], [ -83.163932258194009, 9.060301480340048 ], [ -83.163936804696235, 9.060301453448842 ], [ -83.163936831749425, 9.060305972733516 ], [ -83.163932285247142, 9.060305999624731 ] ] ] ] } },
{ "type": "Feature", "properties": { "count": 10.0, "poly_id": 38, "landcover": 10.0, "elv": 916.23724365234375 }, "geometry": { "type": "MultiPolygon", "coordinates": [ [ [ [ -83.369360861838459, 8.980405497464423 ], [ -83.369360832483977, 8.980400978805582 ], [ -83.369365377337189, 8.980400949620263 ], [ -83.369365406691728, 8.980405468279086 ], [ -83.369360861838459, 8.980405497464423 ] ] ] ] } },
{ "type": "Feature", "properties": { "count": 10.0, "poly_id": 32, "landcover": 10.0, "elv": 1065.645263671875 }, "geometry": { "type": "MultiPolygon", "coordinates": [ [ [ [ -82.955574547276299, 8.97279627850644 ], [ -82.955574523067014, 8.972791758605407 ], [ -82.955579069072996, 8.972791734535111 ], [ -82.955579093282353, 8.97279625443613 ], [ -82.955574547276299, 8.97279627850644 ] ] ] ] } },
{ "type": "Feature", "properties": { "count": 10.0, "poly_id": 16, "landcover": 10.0, "elv": 82.162406921386719 }, "geometry": { "type": "MultiPolygon", "coordinates": [ [ [ [ -83.301719273000245, 8.848244180214397 ], [ -83.301719244909734, 8.848239661304566 ], [ -83.301723788349776, 8.848239633365704 ], [ -83.30172381644033, 8.848244152275525 ], [ -83.301719273000245, 8.848244180214397 ] ] ] ] } },
{ "type": "Feature", "properties": { "count": 10.0, "poly_id": 46, "landcover": 10.0, "elv": 1082.547119140625 }, "geometry": { "type": "MultiPolygon", "coordinates": [ [ [ [ -83.439299635863577, 9.28007485493511 ], [ -83.43929960461729, 9.280070336583625 ], [ -83.439304153032921, 9.280070305543846 ], [ -83.43930418427928, 9.280074823895315 ], [ -83.439299635863577, 9.28007485493511 ] ] ] ] } },
{ "type": "Feature", "properties": { "count": 30.0, "poly_id": 46, "landcover": 30.0, "elv": 1067.646240234375 }, "geometry": { "type": "MultiPolygon", "coordinates": [ [ [ [ -83.433284493299908, 9.27848916321231 ], [ -83.433284462136044, 9.27848464484012 ], [ -83.43328901055169, 9.27848461388208 ], [ -83.433289041715611, 9.278489132254254 ], [ -83.433284493299908, 9.27848916321231 ] ] ] ] } },
{ "type": "Feature", "properties": { "count": 10.0, "poly_id": 13, "landcover": 10.0, "elv": 15.936909675598145 }, "geometry": { "type": "MultiPolygon", "coordinates": [ [ [ [ -83.483553852662439, 8.768188598754522 ], [ -83.483553822632629, 8.768184080428567 ], [ -83.483558364489312, 8.76818405055433 ], [ -83.483558394519164, 8.768188568880264 ], [ -83.483553852662439, 8.768188598754522 ] ] ] ] } },
{ "type": "Feature", "properties": { "count": 10.0, "poly_id": 67, "landcover": 10.0, "elv": 1669.4906005859375 }, "geometry": { "type": "MultiPolygon", "coordinates": [ [ [ [ -83.227721725114733, 9.271965786299283 ], [ -83.227721696602629, 9.271961267261435 ], [ -83.227726245602668, 9.271961238937104 ], [ -83.227726274114829, 9.271965757974939 ], [ -83.227721725114733, 9.271965786299283 ] ] ] ] } },
{ "type": "Feature", "properties": { "count": 30.0, "poly_id": 11, "landcover": 30.0, "elv": 17.562664031982422 }, "geometry": { "type": "MultiPolygon", "coordinates": [ [ [ [ -83.304531696377083, 8.459402420791209 ], [ -83.304531669506602, 8.459397901798823 ], [ -83.304536208277739, 8.459397875045434 ], [ -83.304536235148248, 8.459402394037809 ], [ -83.304531696377083, 8.459402420791209 ] ] ] ] } },
{ "type": "Feature", "properties": { "count": 10.0, "poly_id": 61, "landcover": 10.0, "elv": 1542.4183349609375 }, "geometry": { "type": "MultiPolygon", "coordinates": [ [ [ [ -83.357066651296847, 9.308552896039339 ], [ -83.357066621009039, 9.308548377421701 ], [ -83.357071170067442, 9.308548347336551 ], [ -83.357071200355307, 9.308552865954175 ], [ -83.357066651296847, 9.308552896039339 ] ] ] ] } },
{ "type": "Feature", "properties": { "count": 10.0, "poly_id": 52, "landcover": 10.0, "elv": 1400.712158203125 }, "geometry": { "type": "MultiPolygon", "coordinates": [ [ [ [ -82.939839457144913, 8.988880298240531 ], [ -82.939839433086576, 8.988875778300944 ], [ -82.939843979335663, 8.988875754381821 ], [ -82.939844003394057, 8.988880274321398 ], [ -82.939839457144913, 8.988880298240531 ] ] ] ] } },
{ "type": "Feature", "properties": { "count": 10.0, "poly_id": 37, "landcover": 10.0, "elv": 628.9998779296875 }, "geometry": { "type": "MultiPolygon", "coordinates": [ [ [ [ -83.166844158737689, 9.090930521967961 ], [ -83.166844131555067, 9.090926002699566 ], [ -83.16684867843415, 9.090925975681984 ], [ -83.166848705616843, 9.090930494950365 ], [ -83.166844158737689, 9.090930521967961 ] ] ] ] } },
{ "type": "Feature", "properties": { "count": 30.0, "poly_id": 25, "landcover": 30.0, "elv": 385.80239868164063 }, "geometry": { "type": "MultiPolygon", "coordinates": [ [ [ [ -83.314414588162748, 9.172450116339242 ], [ -83.314414558865053, 9.172445597549384 ], [ -83.314419106316151, 9.172445568436325 ], [ -83.314419135613903, 9.172450087226169 ], [ -83.314414588162748, 9.172450116339242 ] ] ] ] } },
{ "type": "Feature", "properties": { "count": 10.0, "poly_id": 1, "landcover": 10.0, "elv": 8.5024709701538086 }, "geometry": { "type": "MultiPolygon", "coordinates": [ [ [ [ -83.411379946410889, 8.431102846034682 ], [ -83.411379918390722, 8.43109832738503 ], [ -83.41138445648042, 8.431098299484873 ], [ -83.411384484500658, 8.431102818134509 ], [ -83.411379946410889, 8.431102846034682 ] ] ] ] } },
{ "type": "Feature", "properties": { "count": 10.0, "poly_id": 33, "landcover": 10.0, "elv": 819.1348876953125 }, "geometry": { "type": "MultiPolygon", "coordinates": [ [ [ [ -83.399790003818993, 9.004610084825522 ], [ -83.399789974006282, 9.00460556627317 ], [ -83.399794519060194, 9.004605536634266 ], [ -83.399794548872961, 9.004610055186605 ], [ -83.399790003818993, 9.004610084825522 ] ] ] ] } },
{ "type": "Feature", "properties": { "count": 10.0, "poly_id": 48, "landcover": 10.0, "elv": 825.785400390625 }, "geometry": { "type": "MultiPolygon", "coordinates": [ [ [ [ -83.129225439197043, 8.767370089813554 ], [ -83.129225413451934, 8.767365570354615 ], [ -83.129229956437356, 8.767365544742816 ], [ -83.129229982182522, 8.76737006420174 ], [ -83.129225439197043, 8.767370089813554 ] ] ] ] } },
{ "type": "Feature", "properties": { "count": 30.0, "poly_id": 7, "landcover": 30.0, "elv": 21.58281135559082 }, "geometry": { "type": "MultiPolygon", "coordinates": [ [ [ [ -83.335727525087364, 8.529172159805936 ], [ -83.335727497625442, 8.529167640930009 ], [ -83.335732037115903, 8.529167613592774 ], [ -83.335732064577883, 8.529172132468686 ], [ -83.335727525087364, 8.529172159805936 ] ] ] ] } },
{ "type": "Feature", "properties": { "count": 30.0, "poly_id": 66, "landcover": 30.0, "elv": 1490.0548095703125 }, "geometry": { "type": "MultiPolygon", "coordinates": [ [ [ [ -82.934710022902394, 8.998941823535759 ], [ -82.934709998880365, 8.998937303584855 ], [ -82.934714545268847, 8.99893727970249 ], [ -82.934714569290932, 8.99894179965338 ], [ -82.934710022902394, 8.998941823535759 ] ] ] ] } },
{ "type": "Feature", "properties": { "count": 30.0, "poly_id": 16, "landcover": 30.0, "elv": 25.270759582519531 }, "geometry": { "type": "MultiPolygon", "coordinates": [ [ [ [ -83.308810402724916, 8.848742795103767 ], [ -83.308810374546297, 8.848738276216713 ], [ -83.30881491796967, 8.848738248190257 ], [ -83.308814946148345, 8.848742767077297 ], [ -83.308810402724916, 8.848742795103767 ] ] ] ] } },
{ "type": "Feature", "properties": { "count": 10.0, "poly_id": 6, "landcover": 10.0, "elv": 159.86151123046875 }, "geometry": { "type": "MultiPolygon", "coordinates": [ [ [ [ -83.678968413421245, 8.657610688824738 ], [ -83.678968381444975, 8.657606171171752 ], [ -83.678972921264673, 8.6576061393516 ], [ -83.678972953241001, 8.65761065700457 ], [ -83.678968413421245, 8.657610688824738 ] ] ] ] } },
{ "type": "Feature", "properties": { "count": 10.0, "poly_id": 11, "landcover": 10.0, "elv": 141.91474914550781 }, "geometry": { "type": "MultiPolygon", "coordinates": [ [ [ [ -83.312151958534841, 8.458543986666413 ], [ -83.312151931578356, 8.458539467698209 ], [ -83.312156470314946, 8.458539440859111 ], [ -83.312156497271488, 8.458543959827299 ], [ -83.312151958534841, 8.458543986666413 ] ] ] ] } },
{ "type": "Feature", "properties": { "count": 30.0, "poly_id": 29, "landcover": 30.0, "elv": 314.6163330078125 }, "geometry": { "type": "MultiPolygon", "coordinates": [ [ [ [ -83.251885645238033, 9.034829277124135 ], [ -83.251885617166337, 9.034824758102369 ], [ -83.251890163077974, 9.034824730196702 ], [ -83.251890191149727, 9.034829249218456 ], [ -83.251885645238033, 9.034829277124135 ] ] ] ] } },
{ "type": "Feature", "properties": { "count": 10.0, "poly_id": 14, "landcover": 10.0, "elv": 8.2357902526855469 }, "geometry": { "type": "MultiPolygon", "coordinates": [ [ [ [ -83.410118218726907, 8.874945497498684 ], [ -83.410118189224065, 8.874940978949269 ], [ -83.41012273263614, 8.874940949607847 ], [ -83.410122762139039, 8.874945468157248 ], [ -83.410118218726907, 8.874945497498684 ] ] ] ] } },
{ "type": "Feature", "properties": { "count": 10.0, "poly_id": 43, "landcover": 10.0, "elv": 970.691162109375 }, "geometry": { "type": "MultiPolygon", "coordinates": [ [ [ [ -82.9519185958751, 8.95220423172497 ], [ -82.951918571767393, 8.952199711809019 ], [ -82.951923117527343, 8.952199687838364 ], [ -82.951923141635106, 8.952204207754303 ], [ -82.9519185958751, 8.95220423172497 ] ] ] ] } },
{ "type": "Feature", "properties": { "count": 30.0, "poly_id": 40, "landcover": 30.0, "elv": 779.5928955078125 }, "geometry": { "type": "MultiPolygon", "coordinates": [ [ [ [ -83.503697406543523, 9.045125700248249 ], [ -83.503697375298486, 9.045121182058933 ], [ -83.503701920504355, 9.045121150999591 ], [ -83.503701951749463, 9.04512566918889 ], [ -83.503697406543523, 9.045125700248249 ] ] ] ] } },
{ "type": "Feature", "properties": { "count": 30.0, "poly_id": 57, "landcover": 30.0, "elv": 1238.514892578125 }, "geometry": { "type": "MultiPolygon", "coordinates": [ [ [ [ -82.949707226978603, 8.997777928099316 ], [ -82.949707202773595, 8.997773408188504 ], [ -82.949711749106939, 8.997773384124166 ], [ -82.949711773311989, 8.997777904034963 ], [ -82.949707226978603, 8.997777928099316 ] ] ] ] } },
{ "type": "Feature", "properties": { "count": 10.0, "poly_id": 47, "landcover": 10.0, "elv": 940.0616455078125 }, "geometry": { "type": "MultiPolygon", "coordinates": [ [ [ [ -82.922960884367583, 8.838990956798225 ], [ -82.922960860922572, 8.838986436777118 ], [ -82.922965405364238, 8.838986413458061 ], [ -82.92296542880932, 8.838990933479161 ], [ -82.922960884367583, 8.838990956798225 ] ] ] ] } },
{ "type": "Feature", "properties": { "count": 10.0, "poly_id": 12, "landcover": 10.0, "elv": 71.4124755859375 }, "geometry": { "type": "MultiPolygon", "coordinates": [ [ [ [ -83.318910352265803, 8.850849490917151 ], [ -83.318910323957141, 8.850844972062996 ], [ -83.318914867373792, 8.850844943907358 ], [ -83.318914895682511, 8.8508494627615 ], [ -83.318910352265803, 8.850849490917151 ] ] ] ] } },
{ "type": "Feature", "properties": { "count": 30.0, "poly_id": 2, "landcover": 30.0, "elv": 15.243928909301758 }, "geometry": { "type": "MultiPolygon", "coordinates": [ [ [ [ -83.477052812778169, 8.650025873658235 ], [ -83.477052783236743, 8.650021355281954 ], [ -83.477057323690602, 8.650021325884147 ], [ -83.477057353232084, 8.650025844260416 ], [ -83.477052812778169, 8.650025873658235 ] ] ] ] } },
{ "type": "Feature", "properties": { "count": 30.0, "poly_id": 37, "landcover": 30.0, "elv": 580.5472412109375 }, "geometry": { "type": "MultiPolygon", "coordinates": [ [ [ [ -83.172277517762851, 9.08710188804805 ], [ -83.172277490523769, 9.087097368795051 ], [ -83.172282037338135, 9.08709734172106 ], [ -83.172282064577274, 9.087101860974048 ], [ -83.172277517762851, 9.08710188804805 ] ] ] ] } },
{ "type": "Feature", "properties": { "count": 10.0, "poly_id": 17, "landcover": 10.0, "elv": 16.177284240722656 }, "geometry": { "type": "MultiPolygon", "coordinates": [ [ [ [ -83.45919227863142, 8.668577083830316 ], [ -83.45919224923901, 8.668572565397298 ], [ -83.459196789976716, 8.668572536149247 ], [ -83.459196819369183, 8.668577054582247 ], [ -83.45919227863142, 8.668577083830316 ] ] ] ] } },
{ "type": "Feature", "properties": { "count": 10.0, "poly_id": 58, "landcover": 10.0, "elv": 1313.3350830078125 }, "geometry": { "type": "MultiPolygon", "coordinates": [ [ [ [ -83.357873663113836, 9.265980274426985 ], [ -83.357873632956668, 9.265975755801254 ], [ -83.357878181463306, 9.265975725842175 ], [ -83.357878211620516, 9.26598024446789 ], [ -83.357873663113836, 9.265980274426985 ] ] ] ] } },
{ "type": "Feature", "properties": { "count": 30.0, "poly_id": 48, "landcover": 30.0, "elv": 914.85235595703125 }, "geometry": { "type": "MultiPolygon", "coordinates": [ [ [ [ -83.12405721470131, 8.769297430866267 ], [ -83.124057189012944, 8.769292911392554 ], [ -83.124061732037092, 8.769292885837324 ], [ -83.124061757725528, 8.769297405311022 ], [ -83.12405721470131, 8.769297430866267 ] ] ] ] } },
{ "type": "Feature", "properties": { "count": 30.0, "poly_id": 3, "landcover": 30.0, "elv": 10.571269035339355 }, "geometry": { "type": "MultiPolygon", "coordinates": [ [ [ [ -83.30895205555818, 8.515503957691594 ], [ -83.308952028455039, 8.515499438726298 ], [ -83.308956567870865, 8.515499411745244 ], [ -83.308956594974063, 8.515503930710524 ], [ -83.30895205555818, 8.515503957691594 ] ] ] ] } },
{ "type": "Feature", "properties": { "count": 10.0, "poly_id": 34, "landcover": 10.0, "elv": 786.8099365234375 }, "geometry": { "type": "MultiPolygon", "coordinates": [ [ [ [ -83.389609723778662, 9.237030724144386 ], [ -83.389609693312948, 9.237026205615804 ], [ -83.389614241342599, 9.237026175347699 ], [ -83.389614271808355, 9.237030693876267 ], [ -83.389609723778662, 9.237030724144386 ] ] ] ] } },
{ "type": "Feature", "properties": { "count": 30.0, "poly_id": 38, "landcover": 30.0, "elv": 874.51239013671875 }, "geometry": { "type": "MultiPolygon", "coordinates": [ [ [ [ -83.368030860056137, 8.985565525941034 ], [ -83.368030830700974, 8.985561007279088 ], [ -83.368035375622867, 8.985560978093527 ], [ -83.368035404978073, 8.985565496755459 ], [ -83.368030860056137, 8.985565525941034 ] ] ] ] } },
{ "type": "Feature", "properties": { "count": 30.0, "poly_id": 32, "landcover": 30.0, "elv": 1036.7257080078125 }, "geometry": { "type": "MultiPolygon", "coordinates": [ [ [ [ -82.959107333297482, 8.970336745158052 ], [ -82.959107309051234, 8.970332225266008 ], [ -82.959111855016971, 8.970332201158797 ], [ -82.959111879263276, 8.970336721050831 ], [ -82.959107333297482, 8.970336745158052 ] ] ] ] } },
{ "type": "Feature", "properties": { "count": 30.0, "poly_id": 53, "landcover": 30.0, "elv": 1319.3345947265625 }, "geometry": { "type": "MultiPolygon", "coordinates": [ [ [ [ -82.84412049634814, 8.940823349858706 ], [ -82.844120473600796, 8.940818829656358 ], [ -82.844125019504773, 8.940818807037607 ], [ -82.844125042252188, 8.94082332723994 ], [ -82.84412049634814, 8.940823349858706 ] ] ] ] } },
{ "type": "Feature", "properties": { "count": 30.0, "poly_id": 43, "landcover": 30.0, "elv": 978.79681396484375 }, "geometry": { "type": "MultiPolygon", "coordinates": [ [ [ [ -82.953026948429596, 8.955452814222957 ], [ -82.953026924299323, 8.955448294310798 ], [ -82.953031470096604, 8.955448270317911 ], [ -82.953031494226934, 8.955452790230058 ], [ -82.953026948429596, 8.955452814222957 ] ] ] ] } },
{ "type": "Feature", "properties": { "count": 10.0, "poly_id": 53, "landcover": 10.0, "elv": 1335.9110107421875 }, "geometry": { "type": "MultiPolygon", "coordinates": [ [ [ [ -82.841097038694926, 8.936227651288203 ], [ -82.841097015996738, 8.936223131077011 ], [ -82.841101561851502, 8.936223108506839 ], [ -82.841101584549762, 8.936227628718017 ], [ -82.841097038694926, 8.936227651288203 ] ] ] ] } },
{ "type": "Feature", "properties": { "count": 10.0, "poly_id": 65, "landcover": 10.0, "elv": 1616.0228271484375 }, "geometry": { "type": "MultiPolygon", "coordinates": [ [ [ [ -83.052140283909111, 9.118712533244908 ], [ -83.052140258084805, 9.11870801364798 ], [ -83.052144805652404, 9.118707987982484 ], [ -83.052144831476781, 9.118712507579401 ], [ -83.052140283909111, 9.118712533244908 ] ] ] ] } },
{ "type": "Feature", "properties": { "count": 10.0, "poly_id": 55, "landcover": 10.0, "elv": 1195.9163818359375 }, "geometry": { "type": "MultiPolygon", "coordinates": [ [ [ [ -82.973974174778448, 8.995750290869797 ], [ -82.973974150277925, 8.995745771024483 ], [ -82.97397869651958, 8.995745746666188 ], [ -82.97397872102016, 8.995750266511486 ], [ -82.973974174778448, 8.995750290869797 ] ] ] ] } },
{ "type": "Feature", "properties": { "count": 30.0, "poly_id": 18, "landcover": 30.0, "elv": 240.40946960449219 }, "geometry": { "type": "MultiPolygon", "coordinates": [ [ [ [ -83.422182391193914, 9.13107631265987 ], [ -83.422182360673446, 9.131071794213494 ], [ -83.422186907243031, 9.131071763881792 ], [ -83.422186937763556, 9.131076282328154 ], [ -83.422182391193914, 9.13107631265987 ] ] ] ] } },
{ "type": "Feature", "properties": { "count": 10.0, "poly_id": 60, "landcover": 10.0, "elv": 1291.63134765625 }, "geometry": { "type": "MultiPolygon", "coordinates": [ [ [ [ -83.132760698438062, 9.140213453607737 ], [ -83.132760671535308, 9.140208934249978 ], [ -83.132765219140083, 9.140208907514308 ], [ -83.132765246042894, 9.140213426872052 ], [ -83.132760698438062, 9.140213453607737 ] ] ] ] } },
{ "type": "Feature", "properties": { "count": 30.0, "poly_id": 17, "landcover": 30.0, "elv": 7.9726719856262207 }, "geometry": { "type": "MultiPolygon", "coordinates": [ [ [ [ -83.461895536625519, 8.665306259923472 ], [ -83.461895507212091, 8.665301741498903 ], [ -83.461900047901267, 8.665301712229679 ], [ -83.461900077314752, 8.665306230654235 ], [ -83.461895536625519, 8.665306259923472 ] ] ] ] } },
{ "type": "Feature", "properties": { "count": 10.0, "poly_id": 40, "landcover": 10.0, "elv": 775.73565673828125 }, "geometry": { "type": "MultiPolygon", "coordinates": [ [ [ [ -83.505303672322839, 9.040777058391065 ], [ -83.505303641073041, 9.040772540206257 ], [ -83.50530818621877, 9.040772509141812 ], [ -83.50530821746861, 9.040777027326603 ], [ -83.505303672322839, 9.040777058391065 ] ] ] ] } },
{ "type": "Feature", "properties": { "count": 30.0, "poly_id": 26, "landcover": 30.0, "elv": 369.14706420898438 }, "geometry": { "type": "MultiPolygon", "coordinates": [ [ [ [ -83.160894322378994, 9.054087109120871 ], [ -83.160894295382676, 9.054082589825549 ], [ -83.160898841815893, 9.054082562990349 ], [ -83.160898868812268, 9.054087082285657 ], [ -83.160894322378994, 9.054087109120871 ] ] ] ] } },
{ "type": "Feature", "properties": { "count": 10.0, "poly_id": 24, "landcover": 10.0, "elv": 445.12548828125 }, "geometry": { "type": "MultiPolygon", "coordinates": [ [ [ [ -83.065537864431661, 8.931791185180666 ], [ -83.065537838980376, 8.931786665576128 ], [ -83.065542384169007, 8.931786640268086 ], [ -83.065542409620349, 8.93179115987261 ], [ -83.065537864431661, 8.931791185180666 ] ] ] ] } },
{ "type": "Feature", "properties": { "count": 10.0, "poly_id": 23, "landcover": 10.0, "elv": 557.21307373046875 }, "geometry": { "type": "MultiPolygon", "coordinates": [ [ [ [ -83.425859838494489, 9.23055195124204 ], [ -83.425859807588964, 9.230547432832806 ], [ -83.425864355413779, 9.230547402127163 ], [ -83.425864386319361, 9.230551920536378 ], [ -83.425859838494489, 9.23055195124204 ] ] ] ] } },
{ "type": "Feature", "properties": { "count": 30.0, "poly_id": 19, "landcover": 30.0, "elv": 12.22260570526123 }, "geometry": { "type": "MultiPolygon", "coordinates": [ [ [ [ -83.063248021154834, 8.616142110662558 ], [ -83.063247996644023, 8.616137590976136 ], [ -83.063252538001322, 8.616137566582257 ], [ -83.06325256251219, 8.616142086268662 ], [ -83.063248021154834, 8.616142110662558 ] ] ] ] } },
{ "type": "Feature", "properties": { "count": 10.0, "poly_id": 5, "landcover": 10.0, "elv": 19.784812927246094 }, "geometry": { "type": "MultiPolygon", "coordinates": [ [ [ [ -83.402955828735386, 8.433865856173909 ], [ -83.402955800803767, 8.433861337496779 ], [ -83.402960338953946, 8.433861309684993 ], [ -83.402960366885623, 8.433865828362107 ], [ -83.402955828735386, 8.433865856173909 ] ] ] ] } },
{ "type": "Feature", "properties": { "count": 30.0, "poly_id": 4, "landcover": 30.0, "elv": 15.093112945556641 }, "geometry": { "type": "MultiPolygon", "coordinates": [ [ [ [ -83.092122977657823, 8.663985496775911 ], [ -83.092122952664013, 8.663980977183904 ], [ -83.092127494510223, 8.663980952312542 ], [ -83.092127519504089, 8.663985471904537 ], [ -83.092122977657823, 8.663985496775911 ] ] ] ] } },
{ "type": "Feature", "properties": { "count": 30.0, "poly_id": 52, "landcover": 30.0, "elv": 1328.0057373046875 }, "geometry": { "type": "MultiPolygon", "coordinates": [ [ [ [ -82.942851546132701, 8.991034066433652 ], [ -82.942851522031148, 8.991029546502697 ], [ -82.942856068298951, 8.991029522540758 ], [ -82.942856092400547, 8.991034042471703 ], [ -82.942851546132701, 8.991034066433652 ] ] ] ] } },
{ "type": "Feature", "properties": { "count": 10.0, "poly_id": 42, "landcover": 10.0, "elv": 1015.8618774414063 }, "geometry": { "type": "MultiPolygon", "coordinates": [ [ [ [ -82.92176700519974, 8.923885223081957 ], [ -82.921766981540614, 8.92388070307817 ], [ -82.921771527030941, 8.923880679551671 ], [ -82.921771550690124, 8.923885199555448 ], [ -82.92176700519974, 8.923885223081957 ] ] ] ] } },
{ "type": "Feature", "properties": { "count": 30.0, "poly_id": 70, "landcover": 30.0, "elv": 1555.1341552734375 }, "geometry": { "type": "MultiPolygon", "coordinates": [ [ [ [ -82.965369934111507, 9.018848272848778 ], [ -82.965369909654058, 9.018843752985628 ], [ -82.965374456207982, 9.018843728671738 ], [ -82.965374480665474, 9.018848248534876 ], [ -82.965369934111507, 9.018848272848778 ] ] ] ] } },
{ "type": "Feature", "properties": { "count": 30.0, "poly_id": 55, "landcover": 30.0, "elv": 1190.206298828125 }, "geometry": { "type": "MultiPolygon", "coordinates": [ [ [ [ -82.976712223056992, 8.99763399761135 ], [ -82.976712198517276, 8.997629477773996 ], [ -82.976716744774919, 8.997629453376865 ], [ -82.976716769314692, 8.997633973214205 ], [ -82.976712223056992, 8.99763399761135 ] ] ] ] } },
{ "type": "Feature", "properties": { "count": 30.0, "poly_id": 59, "landcover": 30.0, "elv": 1251.4884033203125 }, "geometry": { "type": "MultiPolygon", "coordinates": [ [ [ [ -82.857756779589366, 8.940484033042374 ], [ -82.85775675667476, 8.94047951287493 ], [ -82.857761302539345, 8.940479490089841 ], [ -82.857761325454007, 8.940484010257268 ], [ -82.857756779589366, 8.940484033042374 ] ] ] ] } },
{ "type": "Feature", "properties": { "count": 10.0, "poly_id": 9, "landcover": 10.0, "elv": 85.84014892578125 }, "geometry": { "type": "MultiPolygon", "coordinates": [ [ [ [ -83.360933375480315, 8.771415453183435 ], [ -83.360933346921669, 8.771410934446553 ], [ -83.36093788923138, 8.771410906036088 ], [ -83.360937917790096, 8.771415424772957 ], [ -83.360933375480315, 8.771415453183435 ] ] ] ] } },
{ "type": "Feature", "properties": { "count": 10.0, "poly_id": 20, "landcover": 10.0, "elv": 238.10289001464844 }, "geometry": { "type": "MultiPolygon", "coordinates": [ [ [ [ -83.254956825013053, 9.046198754599784 ], [ -83.254956796867134, 9.046194235590399 ], [ -83.254961342911699, 9.04619420761184 ], [ -83.254961371057675, 9.046198726621215 ], [ -83.254956825013053, 9.046198754599784 ] ] ] ] } },
{ "type": "Feature", "properties": { "count": 10.0, "poly_id": 45, "landcover": 10.0, "elv": 940.75006103515625 }, "geometry": { "type": "MultiPolygon", "coordinates": [ [ [ [ -82.944651704735108, 8.919155602041609 ], [ -82.944651680807226, 8.919151082098004 ], [ -82.944656226177358, 8.919151058303964 ], [ -82.944656250105297, 8.919155578247558 ], [ -82.944651704735108, 8.919155602041609 ] ] ] ] } },
{ "type": "Feature", "properties": { "count": 10.0, "poly_id": 41, "landcover": 10.0, "elv": 1161.2913818359375 }, "geometry": { "type": "MultiPolygon", "coordinates": [ [ [ [ -83.15943231923778, 8.899258519316149 ], [ -83.159432292728553, 8.899253999978674 ], [ -83.159436837238502, 8.899253973616259 ], [ -83.159436863747786, 8.899258492953717 ], [ -83.15943231923778, 8.899258519316149 ] ] ] ] } },
{ "type": "Feature", "properties": { "count": 30.0, "poly_id": 27, "landcover": 30.0, "elv": 376.8592529296875 }, "geometry": { "type": "MultiPolygon", "coordinates": [ [ [ [ -83.425081250052983, 9.03480970600878 ], [ -83.425081219823539, 9.034805187548395 ], [ -83.425085765170209, 9.034805157497747 ], [ -83.425085795399696, 9.034809675958114 ], [ -83.425081250052983, 9.03480970600878 ] ] ] ] } },
{ "type": "Feature", "properties": { "count": 30.0, "poly_id": 22, "landcover": 30.0, "elv": 333.083251953125 }, "geometry": { "type": "MultiPolygon", "coordinates": [ [ [ [ -83.305288164975593, 9.153528599107947 ], [ -83.305288135854596, 9.153524080284159 ], [ -83.305292683094436, 9.153524051345123 ], [ -83.30529271221549, 9.153528570168891 ], [ -83.305288164975593, 9.153528599107947 ] ] ] ] } },
{ "type": "Feature", "properties": { "count": 30.0, "poly_id": 14, "landcover": 30.0, "elv": 1.4879646301269531 }, "geometry": { "type": "MultiPolygon", "coordinates": [ [ [ [ -83.415579173587417, 8.876265807379246 ], [ -83.415579144013279, 8.876261288848413 ], [ -83.415583687423251, 8.876261259436211 ], [ -83.415583716997432, 8.876265777967028 ], [ -83.415579173587417, 8.876265807379246 ] ] ] ] } },
{ "type": "Feature", "properties": { "count": 30.0, "poly_id": 58, "landcover": 30.0, "elv": 1436.7337646484375 }, "geometry": { "type": "MultiPolygon", "coordinates": [ [ [ [ -83.351864206662441, 9.265206413977793 ], [ -83.351864176584641, 9.265201895332254 ], [ -83.351868725101056, 9.265201865451962 ], [ -83.351868755178913, 9.265206384097485 ], [ -83.351864206662441, 9.265206413977793 ] ] ] ] } },
{ "type": "Feature", "properties": { "count": 30.0, "poly_id": 31, "landcover": 30.0, "elv": 875.6422119140625 }, "geometry": { "type": "MultiPolygon", "coordinates": [ [ [ [ -83.04861407931341, 9.02625808366253 ], [ -83.048614053799184, 9.026253564032791 ], [ -83.048618600212905, 9.026253538668859 ], [ -83.048618625727187, 9.026258058298588 ], [ -83.04861407931341, 9.02625808366253 ] ] ] ] } },
{ "type": "Feature", "properties": { "count": 30.0, "poly_id": 63, "landcover": 30.0, "elv": 1782.635986328125 }, "geometry": { "type": "MultiPolygon", "coordinates": [ [ [ [ -83.027096527209594, 9.080886574826426 ], [ -83.027096501807904, 9.08088205514934 ], [ -83.02710104896903, 9.080882029901158 ], [ -83.02710107437079, 9.08088654957823 ], [ -83.027096527209594, 9.080886574826426 ] ] ] ] } },
{ "type": "Feature", "properties": { "count": 30.0, "poly_id": 9, "landcover": 30.0, "elv": 8.1445369720458984 }, "geometry": { "type": "MultiPolygon", "coordinates": [ [ [ [ -83.35469574396835, 8.776334864940177 ], [ -83.354695715468878, 8.776330346184082 ], [ -83.354700257858894, 8.776330317832876 ], [ -83.354700286358423, 8.776334836588957 ], [ -83.35469574396835, 8.776334864940177 ] ] ] ] } },
{ "type": "Feature", "properties": { "count": 30.0, "poly_id": 21, "landcover": 30.0, "elv": 484.94534301757813 }, "geometry": { "type": "MultiPolygon", "coordinates": [ [ [ [ -83.376762251090156, 9.069559305343958 ], [ -83.376762221346837, 9.069554786731317 ], [ -83.376766767291613, 9.0695547571668 ], [ -83.376766797035003, 9.069559275779424 ], [ -83.376762251090156, 9.069559305343958 ] ] ] ] } },
{ "type": "Feature", "properties": { "count": 30.0, "poly_id": 28, "landcover": 30.0, "elv": 556.9833984375 }, "geometry": { "type": "MultiPolygon", "coordinates": [ [ [ [ -83.137049657995789, 8.753224798130329 ], [ -83.137049632198469, 8.753220278691156 ], [ -83.137054174988933, 8.753220253026416 ], [ -83.137054200786324, 8.753224772465574 ], [ -83.137049657995789, 8.753224798130329 ] ] ] ] } },
{ "type": "Feature", "properties": { "count": 10.0, "poly_id": 36, "landcover": 10.0, "elv": 717.6685791015625 }, "geometry": { "type": "MultiPolygon", "coordinates": [ [ [ [ -83.465258936185677, 9.127261941284555 ], [ -83.46525890513594, 9.127257422983135 ], [ -83.465263451510395, 9.127257392125115 ], [ -83.465263482560175, 9.127261910426515 ], [ -83.465258936185677, 9.127261941284555 ] ] ] ] } },
{ "type": "Feature", "properties": { "count": 30.0, "poly_id": 12, "landcover": 30.0, "elv": 29.904708862304688 }, "geometry": { "type": "MultiPolygon", "coordinates": [ [ [ [ -83.31098955196849, 8.848458203265047 ], [ -83.310989523764221, 8.8484536843849 ], [ -83.310994067177091, 8.848453656332898 ], [ -83.310994095381403, 8.848458175213034 ], [ -83.31098955196849, 8.848458203265047 ] ] ] ] } },
{ "type": "Feature", "properties": { "count": 30.0, "poly_id": 13, "landcover": 30.0, "elv": 47.508869171142578 }, "geometry": { "type": "MultiPolygon", "coordinates": [ [ [ [ -83.476183449836682, 8.766339215867195 ], [ -83.476183419902355, 8.76633469751547 ], [ -83.476187961762037, 8.766334667736063 ], [ -83.476187991696406, 8.766339186087775 ], [ -83.476183449836682, 8.766339215867195 ] ] ] ] } },
{ "type": "Feature", "properties": { "count": 10.0, "poly_id": 29, "landcover": 10.0, "elv": 410.76553344726563 }, "geometry": { "type": "MultiPolygon", "coordinates": [ [ [ [ -83.259795509428997, 9.034780636185825 ], [ -83.259795481258905, 9.034776117188775 ], [ -83.259800027145047, 9.034776089185293 ], [ -83.259800055315196, 9.034780608182325 ], [ -83.259795509428997, 9.034780636185825 ] ] ] ] } },
{ "type": "Feature", "properties": { "count": 30.0, "poly_id": 61, "landcover": 30.0, "elv": 1557.603271484375 }, "geometry": { "type": "MultiPolygon", "coordinates": [ [ [ [ -83.361158977304214, 9.308254679696052 ], [ -83.361158946964849, 9.308250161091719 ], [ -83.361163496005915, 9.308250130955322 ], [ -83.361163526345351, 9.30825464955964 ], [ -83.361158977304214, 9.308254679696052 ] ] ] ] } },
{ "type": "Feature", "properties": { "count": 30.0, "poly_id": 20, "landcover": 30.0, "elv": 220.31651306152344 }, "geometry": { "type": "MultiPolygon", "coordinates": [ [ [ [ -83.255815672816752, 9.052701086137009 ], [ -83.25581564463954, 9.052696567131909 ], [ -83.255820190763046, 9.052696539122758 ], [ -83.255820218940329, 9.052701058127845 ], [ -83.255815672816752, 9.052701086137009 ] ] ] ] } },
{ "type": "Feature", "properties": { "count": 10.0, "poly_id": 25, "landcover": 10.0, "elv": 436.41934204101563 }, "geometry": { "type": "MultiPolygon", "coordinates": [ [ [ [ -83.307338073617217, 9.175206750553917 ], [ -83.307338044400126, 9.175202231742077 ], [ -83.307342591909133, 9.175202202709341 ], [ -83.307342621126281, 9.175206721521167 ], [ -83.307338073617217, 9.175206750553917 ] ] ] ] } },
{ "type": "Feature", "properties": { "count": 30.0, "poly_id": 41, "landcover": 30.0, "elv": 1107.3994140625 }, "geometry": { "type": "MultiPolygon", "coordinates": [ [ [ [ -83.156681788128097, 8.895206915255072 ], [ -83.156681761664856, 8.895202395908395 ], [ -83.156686306133096, 8.895202369591424 ], [ -83.156686332596379, 8.895206888938088 ], [ -83.156681788128097, 8.895206915255072 ] ] ] ] } },
{ "type": "Feature", "properties": { "count": 10.0, "poly_id": 49, "landcover": 10.0, "elv": 1118.029296875 }, "geometry": { "type": "MultiPolygon", "coordinates": [ [ [ [ -82.864349842484344, 8.895971462222141 ], [ -82.864349819604783, 8.895966942060912 ], [ -82.864354364901715, 8.895966919307856 ], [ -82.864354387781333, 8.895971439469072 ], [ -82.864349842484344, 8.895971462222141 ] ] ] ] } },
{ "type": "Feature", "properties": { "count": 10.0, "poly_id": 57, "landcover": 10.0, "elv": 1281.139892578125 }, "geometry": { "type": "MultiPolygon", "coordinates": [ [ [ [ -82.945878157348844, 8.995899755391097 ], [ -82.945878133196501, 8.99589523546949 ], [ -82.945882679516814, 8.995895211457364 ], [ -82.945882703669213, 8.995899731378959 ], [ -82.945878157348844, 8.995899755391097 ] ] ] ] } },
{ "type": "Feature", "properties": { "count": 30.0, "poly_id": 6, "landcover": 30.0, "elv": 146.06724548339844 }, "geometry": { "type": "MultiPolygon", "coordinates": [ [ [ [ -83.677075109625761, 8.659521465663323 ], [ -83.677075077664924, 8.659516948003759 ], [ -83.677079617514593, 8.659516916199117 ], [ -83.677079649475488, 8.659521433858664 ], [ -83.677075109625761, 8.659521465663323 ] ] ] ] } },
{ "type": "Feature", "properties": { "count": 30.0, "poly_id": 45, "landcover": 30.0, "elv": 1008.015625 }, "geometry": { "type": "MultiPolygon", "coordinates": [ [ [ [ -82.946869427203566, 8.925924079790443 ], [ -82.946869403229954, 8.92591955985446 ], [ -82.946873948677819, 8.925919536015375 ], [ -82.946873972651488, 8.925924055951343 ], [ -82.946869427203566, 8.925924079790443 ] ] ] ] } },
{ "type": "Feature", "properties": { "count": 10.0, "poly_id": 30, "landcover": 10.0, "elv": 485.15975952148438 }, "geometry": { "type": "MultiPolygon", "coordinates": [ [ [ [ -83.219743815579292, 9.08654500691927 ], [ -83.219743787747021, 9.08654048781062 ], [ -83.219748334409019, 9.086540460147006 ], [ -83.219748362241319, 9.086544979255642 ], [ -83.219743815579292, 9.08654500691927 ] ] ] ] } },
{ "type": "Feature", "properties": { "count": 30.0, "poly_id": 65, "landcover": 30.0, "elv": 1575.689697265625 }, "geometry": { "type": "MultiPolygon", "coordinates": [ [ [ [ -83.050520192060404, 9.121704705921312 ], [ -83.050520166247864, 9.121700186320517 ], [ -83.050524713857996, 9.121700160666933 ], [ -83.050524739670593, 9.121704680267715 ], [ -83.050520192060404, 9.121704705921312 ] ] ] ] } },
{ "type": "Feature", "properties": { "count": 30.0, "poly_id": 60, "landcover": 30.0, "elv": 1248.141845703125 }, "geometry": { "type": "MultiPolygon", "coordinates": [ [ [ [ -83.133563121743023, 9.13749702684864 ], [ -83.133563094838294, 9.137492507492578 ], [ -83.13356764240622, 9.13749248075473 ], [ -83.13356766931102, 9.137497000110779 ], [ -83.133563121743023, 9.13749702684864 ] ] ] ] } },
{ "type": "Feature", "properties": { "count": 10.0, "poly_id": 31, "landcover": 10.0, "elv": 894.53131103515625 }, "geometry": { "type": "MultiPolygon", "coordinates": [ [ [ [ -83.042606696418574, 9.025206799820744 ], [ -83.042606670982153, 9.02520228017371 ], [ -83.042611217399852, 9.025202254887049 ], [ -83.04261124283633, 9.025206774534066 ], [ -83.042606696418574, 9.025206799820744 ] ] ] ] } },
{ "type": "Feature", "properties": { "count": 30.0, "poly_id": 15, "landcover": 30.0, "elv": 49.860553741455078 }, "geometry": { "type": "MultiPolygon", "coordinates": [ [ [ [ -83.071447549642755, 8.620708170544178 ], [ -83.071447525021327, 8.620703650882325 ], [ -83.071452066409506, 8.620703626378667 ], [ -83.071452091030991, 8.620708146040505 ], [ -83.071447549642755, 8.620708170544178 ] ] ] ] } },
{ "type": "Feature", "properties": { "count": 30.0, "poly_id": 51, "landcover": 30.0, "elv": 1269.8167724609375 }, "geometry": { "type": "MultiPolygon", "coordinates": [ [ [ [ -82.917381954906062, 8.971911696847449 ], [ -82.917381931171775, 8.971907176843674 ], [ -82.917386477269858, 8.971907153245608 ], [ -82.917386501004202, 8.971911673249366 ], [ -82.917381954906062, 8.971911696847449 ] ] ] ] } },
{ "type": "Feature", "properties": { "count": 30.0, "poly_id": 42, "landcover": 30.0, "elv": 1067.1387939453125 }, "geometry": { "type": "MultiPolygon", "coordinates": [ [ [ [ -82.929143509875843, 8.926287828536465 ], [ -82.929143486119443, 8.926283308552954 ], [ -82.929148031619704, 8.926283284929882 ], [ -82.92914805537616, 8.926287804913381 ], [ -82.929143509875843, 8.926287828536465 ] ] ] ] } },
{ "type": "Feature", "properties": { "count": 10.0, "poly_id": 50, "landcover": 10.0, "elv": 994.0474853515625 }, "geometry": { "type": "MultiPolygon", "coordinates": [ [ [ [ -83.461738219757351, 9.288596527153008 ], [ -83.461738188194332, 9.288592008879885 ], [ -83.461742736643103, 9.28859197752625 ], [ -83.461742768206179, 9.288596495799361 ], [ -83.461738219757351, 9.288596527153008 ] ] ] ] } },
{ "type": "Feature", "properties": { "count": 30.0, "poly_id": 24, "landcover": 30.0, "elv": 480.10409545898438 }, "geometry": { "type": "MultiPolygon", "coordinates": [ [ [ [ -83.070452783584244, 8.932848521766582 ], [ -83.070452758069365, 8.932844002176392 ], [ -83.070457303256916, 8.932843976805179 ], [ -83.070457328771866, 8.932848496395353 ], [ -83.070452783584244, 8.932848521766582 ] ] ] ] } },
{ "type": "Feature", "properties": { "count": 10.0, "poly_id": 54, "landcover": 10.0, "elv": 1202.92529296875 }, "geometry": { "type": "MultiPolygon", "coordinates": [ [ [ [ -83.176957449149143, 9.183879358001077 ], [ -83.176957421555713, 9.183874838786197 ], [ -83.176961969583004, 9.183874811367557 ], [ -83.176961997176491, 9.183879330582425 ], [ -83.176957449149143, 9.183879358001077 ] ] ] ] } },
{ "type": "Feature", "properties": { "count": 30.0, "poly_id": 30, "landcover": 30.0, "elv": 483.1651611328125 }, "geometry": { "type": "MultiPolygon", "coordinates": [ [ [ [ -83.218150420234778, 9.093604778034775 ], [ -83.218150392400517, 9.093600258922967 ], [ -83.218154939156463, 9.093600231257913 ], [ -83.218154966990781, 9.093604750369707 ], [ -83.218150420234778, 9.093604778034775 ] ] ] ] } },
{ "type": "Feature", "properties": { "count": 10.0, "poly_id": 7, "landcover": 10.0, "elv": 75.286239624023438 }, "geometry": { "type": "MultiPolygon", "coordinates": [ [ [ [ -83.329182428215759, 8.527855801273404 ], [ -83.329182400835023, 8.527851282376009 ], [ -83.329186940331198, 8.52785125511951 ], [ -83.329186967711976, 8.52785577401689 ], [ -83.329182428215759, 8.527855801273404 ] ] ] ] } },
{ "type": "Feature", "properties": { "count": 10.0, "poly_id": 2, "landcover": 10.0, "elv": 56.313243865966797 }, "geometry": { "type": "MultiPolygon", "coordinates": [ [ [ [ -83.478397216535512, 8.647306028728492 ], [ -83.478397186987507, 8.647301510356188 ], [ -83.478401727404162, 8.647301480951612 ], [ -83.478401756952223, 8.647305999323901 ], [ -83.478397216535512, 8.647306028728492 ] ] ] ] } },
{ "type": "Feature", "properties": { "count": 30.0, "poly_id": 34, "landcover": 30.0, "elv": 886.4879150390625 }, "geometry": { "type": "MultiPolygon", "coordinates": [ [ [ [ -83.389926497272796, 9.243535586535687 ], [ -83.389926466781233, 9.243531068009787 ], [ -83.389931014893264, 9.243531037716554 ], [ -83.389931045384884, 9.243535556242438 ], [ -83.389926497272796, 9.243535586535687 ] ] ] ] } },
{ "type": "Feature", "properties": { "count": 30.0, "poly_id": 67, "landcover": 30.0, "elv": 1715.6685791015625 }, "geometry": { "type": "MultiPolygon", "coordinates": [ [ [ [ -83.224468652505678, 9.275511021869583 ], [ -83.224468624024112, 9.275506502822591 ], [ -83.224473173079915, 9.275506474528887 ], [ -83.224473201561537, 9.275510993575864 ], [ -83.224468652505678, 9.275511021869583 ] ] ] ] } },
{ "type": "Feature", "properties": { "count": 30.0, "poly_id": 56, "landcover": 30.0, "elv": 1513.83642578125 }, "geometry": { "type": "MultiPolygon", "coordinates": [ [ [ [ -83.048878409187211, 9.120900408526557 ], [ -83.048878383397636, 9.120895888920902 ], [ -83.048882931002282, 9.120895863290091 ], [ -83.048882956791914, 9.120900382895735 ], [ -83.048878409187211, 9.120900408526557 ] ] ] ] } },
{ "type": "Feature", "properties": { "count": 30.0, "poly_id": 36, "landcover": 30.0, "elv": 623.82635498046875 }, "geometry": { "type": "MultiPolygon", "coordinates": [ [ [ [ -83.465856698700208, 9.134848979437063 ], [ -83.465856667616691, 9.134844461139565 ], [ -83.465861214085223, 9.134844430248641 ], [ -83.465861245168796, 9.13484894854612 ], [ -83.465856698700208, 9.134848979437063 ] ] ] ] } },
{ "type": "Feature", "properties": { "count": 30.0, "poly_id": 8, "landcover": 30.0, "elv": 3.7934939861297607 }, "geometry": { "type": "MultiPolygon", "coordinates": [ [ [ [ -83.322277815600586, 8.735051036890676 ], [ -83.322277787627542, 8.735046518019669 ], [ -83.322282329622411, 8.735046490189017 ], [ -83.322282357595498, 8.73505100906001 ], [ -83.322277815600586, 8.735051036890676 ] ] ] ] } },
{ "type": "Feature", "properties": { "count": 30.0, "poly_id": 54, "landcover": 30.0, "elv": 1160.527099609375 }, "geometry": { "type": "MultiPolygon", "coordinates": [ [ [ [ -83.176926001838012, 9.178727452251275 ], [ -83.17692597426074, 9.178722933035017 ], [ -83.176930522222463, 9.178722905632013 ], [ -83.176930549799806, 9.17872742484826 ], [ -83.176926001838012, 9.178727452251275 ] ] ] ] } },
{ "type": "Feature", "properties": { "count": 30.0, "poly_id": 10, "landcover": 30.0, "elv": 14.074312210083008 }, "geometry": { "type": "MultiPolygon", "coordinates": [ [ [ [ -83.515193982442824, 8.97239153707894 ], [ -83.515193951310962, 8.972387018911816 ], [ -83.515198495567887, 8.972386987958661 ], [ -83.51519852669982, 8.972391506125767 ], [ -83.515193982442824, 8.97239153707894 ] ] ] ] } },
{ "type": "Feature", "properties": { "count": 30.0, "poly_id": 47, "landcover": 30.0, "elv": 933.3328857421875 }, "geometry": { "type": "MultiPolygon", "coordinates": [ [ [ [ -82.919968573224324, 8.840362344053965 ], [ -82.919968549812097, 8.840357824025215 ], [ -82.919973094278589, 8.840357800738854 ], [ -82.919973117690887, 8.840362320767593 ], [ -82.919968573224324, 8.840362344053965 ] ] ] ] } },
{ "type": "Feature", "properties": { "count": 30.0, "poly_id": 23, "landcover": 30.0, "elv": 557.5262451171875 }, "geometry": { "type": "MultiPolygon", "coordinates": [ [ [ [ -83.432150696544738, 9.232678348939043 ], [ -83.432150665551845, 9.232673830551521 ], [ -83.4321552133826, 9.23267379975927 ], [ -83.432155244375537, 9.232678318146775 ], [ -83.432150696544738, 9.232678348939043 ] ] ] ] } },
{ "type": "Feature", "properties": { "count": 30.0, "poly_id": 35, "landcover": 30.0, "elv": 706.19451904296875 }, "geometry": { "type": "MultiPolygon", "coordinates": [ [ [ [ -83.049771636939084, 8.989641463739748 ], [ -83.049771611515723, 8.98963694410433 ], [ -83.049776157468557, 8.989636918828129 ], [ -83.049776182891975, 8.989641438463531 ], [ -83.049771636939084, 8.989641463739748 ] ] ] ] } },
{ "type": "Feature", "properties": { "count": 30.0, "poly_id": 50, "landcover": 30.0, "elv": 1066.7598876953125 }, "geometry": { "type": "MultiPolygon", "coordinates": [ [ [ [ -83.45466528424339, 9.291898542201247 ], [ -83.454665252759639, 9.291894023904856 ], [ -83.454669801275273, 9.291893992630245 ], [ -83.454669832759095, 9.291898510926618 ], [ -83.45466528424339, 9.291898542201247 ] ] ] ] } },
{ "type": "Feature", "properties": { "count": 10.0, "poly_id": 22, "landcover": 10.0, "elv": 319.13775634765625 }, "geometry": { "type": "MultiPolygon", "coordinates": [ [ [ [ -83.304177619446264, 9.150553116569753 ], [ -83.304177590348914, 9.150548597741677 ], [ -83.304182137554534, 9.150548568825892 ], [ -83.304182166651941, 9.150553087653952 ], [ -83.304177619446264, 9.150553116569753 ] ] ] ] } },
{ "type": "Feature", "properties": { "count": 10.0, "poly_id": 35, "landcover": 10.0, "elv": 704.349609375 }, "geometry": { "type": "MultiPolygon", "coordinates": [ [ [ [ -83.050618911086829, 8.994789294078544 ], [ -83.050618885638158, 8.994784774446794 ], [ -83.050623431652795, 8.994784749145792 ], [ -83.050623457101509, 8.994789268777529 ], [ -83.050618911086829, 8.994789294078544 ] ] ] ] } },
{ "type": "Feature", "properties": { "count": 30.0, "poly_id": 49, "landcover": 30.0, "elv": 1174.6622314453125 }, "geometry": { "type": "MultiPolygon", "coordinates": [ [ [ [ -82.861920064830599, 8.900865521082027 ], [ -82.861920041968077, 8.900861000915707 ], [ -82.861924587331728, 8.900860978179901 ], [ -82.861924610194293, 8.900865498346212 ], [ -82.861920064830599, 8.900865521082027 ] ] ] ] } }
]
}
