{"type":"FeatureCollection","crs":{"type":"name","properties":{"name":"EPSG:32617"}},"features":[{"type":"Feature","id":0,"geometry":{"type":"Polygon","coordinates":[[[248215.31918932451,942024.46693460736],[248251.74139296351,942356.38004560303],[248211.8151849969,944944.00840279052],[246849.05359740835,944128.2255425374],[245462.41663920542,945320.58186804818],[244030.0420995586,947089.56102509866],[243822.31188969829,947215.37744184968],[243553.38857146286,947378.25993636181],[242520.88182864236,948003.66362038429],[240868.62332677911,948225.36847241479],[236762.57563920133,949493.40120887232],[235315.32390895783,950245.34746975428],[234443.59019328887,951295.40463829949],[232207.70594593044,954857.58062184101],[231994.37036515656,955610.75383805495],[231708.15528495237,956621.2932050277],[230810.24163882155,957987.92628727958],[228913.91372856696,960874.60644515988],[228745.70460982434,961130.69178735721],[227879.1803042044,962449.98518451024],[227193.72852181067,962454.46821174549],[227206.83665922907,962404.85117738461],[226369.37729279301,961775.45182834018],[226930.39743076608,963973.62889280054],[227194.05642839626,964067.74323216325],[227322.07421397552,964912.65941370255],[228047.7906807916,964372.50103436585],[228378.38719371328,964490.51948467758],[229283.60400010651,965269.69231174828],[229732.44401881756,964935.63457419921],[231124.63861895842,964789.94721145369],[232085.02698748792,963941.35461371252],[233161.67203257867,964142.77107047534],[233398.36414335744,964314.234973012],[233664.01927443454,964388.7170719048],[234005.68810441002,964886.82333997765],[234145.06170401222,965664.86232463596],[234672.95978735905,966255.82037439977],[235788.36209874885,966253.20624513715],[236510.68127253209,965721.82772457879],[236551.71598513046,965714.89756033849],[237094.61236065626,965810.50269927469],[237264.71532875864,965964.52663813904],[237745.64530619606,966916.15338477539],[238160.17489498513,966775.3681840623],[238562.21102127325,967139.42715978099],[238715.67271093454,966586.71525780368],[239582.78294619231,966292.25518113421],[241389.46331748852,965905.34609559074],[241750.63432647326,966167.08666282834],[242243.11162600419,965601.98140809487],[243453.4585256727,964917.46269715484],[243144.15034400063,963711.80059565709],[243197.20915235122,963637.84667045169],[243231.41274981209,963126.34977191745],[243738.26988955776,963159.81739953195],[244490.50212687961,963101.16430714075],[243795.25327761809,960768.77552759228],[244699.937118189,959276.94054745126],[245901.71001025874,959151.65445045894],[246833.19525344961,958083.30603773554],[246895.90486737923,957857.72302194952],[247712.58604707976,957371.72475095862],[248511.47265975748,957441.46617892175],[249142.25443745594,957898.69667468185],[249430.91434464519,957760.32953563216],[249539.12101301402,957679.89097999991],[249852.4146313575,957841.69141923124],[250763.80710748569,957362.07317418105],[251833.37487504154,957276.75887697551],[252007.07084963331,956652.27734793921],[252327.1931328848,956206.41264979355],[252460.37782143138,955727.58985178976],[252537.10182729838,955620.73389800813],[252656.38128923211,955474.99595896807],[252699.23339816343,955394.93084568135],[252780.51370454836,955281.7318383191],[252802.9111682997,955201.2205932294],[253231.56190082265,954400.36282626446],[253707.18110261948,954046.95087163104],[254123.98050111343,954240.71989838465],[254350.91737001142,955020.89083085721],[255092.35990010551,955558.47711172828],[255381.04691206987,955420.16020603653],[256740.65583671787,954159.04960048688],[257202.30284348814,954493.7936729904],[257650.69890375773,954160.65658648277],[258294.69271340451,954062.70526682935],[259453.87383830661,954102.94682129438],[260294.92666450367,955457.67427829502],[261047.54186121278,955453.3819379335],[261329.91636739217,954988.76257644093],[261923.70129744173,954912.7780491279],[262118.58165240765,954131.30037049775],[263144.98394917604,953201.83072101325],[263802.55953894771,953028.30763813516],[264239.26798102132,952455.53544128535],[264398.28692346899,951818.12110689282],[264784.28061703529,951529.34550666157],[265404.60716808948,951263.71114182705],[266044.4542615753,951197.35591589333],[266070.29380545649,950978.66797584423],[266286.10091193544,950886.26405124017],[266281.53698189527,950062.49547572923],[262999.04936709011,948770.81301930675],[262516.5466313127,949021.119832383],[262403.90025490965,950502.80796699435],[262086.26578683796,951382.43535867578],[261034.63776481152,953184.57530289365],[260281.98175728731,953188.85781397927],[260153.5002646177,952824.45127163362],[260203.55455321277,951043.58055164106],[261038.52596920263,950192.36254869786],[261113.30020257586,949655.48222360539],[261492.11308478386,949267.84288719413],[261567.34613036102,948727.73670643941],[264449.10570032877,945802.73089242028],[264982.58965508232,945828.16858621989],[265537.08220303815,946255.00095180515],[265745.78873505921,947053.59430774197],[266927.66892135039,947203.80172261235],[267130.05392279895,947978.30840988155],[270141.590628898,948097.70584565646],[270244.12473966088,948490.16622304788],[270246.63047439058,948951.10520953906],[270490.36455576017,949012.53884906601],[270922.96462327481,949345.62595157104],[271410.42371575511,949468.50068103243],[271858.04483936483,949813.17935409024],[272756.26605596469,949000.29110106127],[273413.9139983491,948826.94342084858],[273850.78615478869,948254.31378358777],[274008.92276839714,947621.13549366943],[274827.05732538563,947543.62652691419],[275094.21930616902,947581.29259884288],[275479.91694822162,947962.00942442566],[275747.07486922364,947999.67880143831],[277123.41260489397,947992.40386456507],[277582.18958814163,947989.98883951386],[277947.78552121215,948082.18237099808],[278107.12969865813,948692.69593189668],[278904.41891051992,949582.2445373378],[278968.15824104892,949826.44221076614],[279056.68803802785,950655.37484091672],[280125.88666249218,950813.36989120685],[280574.93501929496,951129.71799103112],[281504.48857872351,951267.12781019125],[281959.21442728728,951587.50872386317],[282548.73879065563,951162.92626137671],[282724.40415430604,952808.62711249758],[283592.75825447263,953816.95104899106],[284388.72345984878,954053.33415835339],[284568.68845124851,954642.81068271445],[285349.16783049249,955549.24122788641],[285499.17823521036,957202.97386808239],[285043.85887343832,957855.3847532568],[284907.12068657897,958789.32375264505],[284592.33000665484,959240.45918608946],[284455.61327261041,960174.40341470006],[284140.8405389603,960625.54597395612],[284000.7193607954,960898.02908545174],[284466.75820617774,961551.39994541393],[284147.9980885699,962008.26707404689],[284008.92355908756,962481.31071251526],[283694.17816996848,962932.46201092051],[283557.5122798892,963866.41809972282],[283175.10576245975,964414.51766337163],[282714.67712988064,964556.49717201607],[282717.0875498947,965017.40835957881],[282655.93232311431,965262.25659024634],[282324.49543184927,965696.78489429888],[282202.19426207483,966186.48450499796],[281746.75771375274,966783.60386630241],[281889.74792244402,968609.15295708913],[282277.87532788044,968707.11137661932],[282544.88906722731,968744.79285975313],[282930.35414722178,969125.521949452],[283197.36363188975,969163.20694023184],[283204.6173457632,970545.94015634537],[283663.13162929239,970543.53569943609],[283929.72155238414,970503.05466295301],[284767.27629176847,969655.01186602423],[287593.05579804222,969562.22570505238],[287974.5319592891,969177.5246021424],[288241.12904647231,969137.07421469176],[288656.61072497279,969241.99948327546],[289099.19168858009,969809.9873078661],[289290.51377552608,970543.69708883797],[289836.94893615053,970113.50054979546],[290781.30305149697,969983.20399709023],[291370.57396203384,969519.32107504422],[291696.61580978346,969643.17990469956],[292128.82170542248,969976.40308469802],[292372.3789621183,970037.92986210203],[292470.01260837371,973290.3412339685],[293072.84328324092,972875.0930031602],[294095.65054080921,972719.41116314614],[294300.80151732086,973947.44569697022],[294612.98241675476,974405.47024816996],[292937.04052744847,976255.71434601129],[292793.43798364839,977473.61996270984],[294288.4759633512,979139.73606879287],[295400.37160657486,979316.00042958325],[295857.24838395679,979624.0574630216],[299069.70433529851,979758.70578745194],[299526.54063586786,980066.79712750437],[299988.70531157684,980215.08665207576],[300519.7061299514,980573.23301808746],[300792.86528874887,981405.60187747807],[301370.52484906826,981590.99630409922],[301827.32096775644,981899.10610236193],[302747.79343704786,982045.19759329688],[303665.12595567049,982811.9777588055],[304585.56349734636,982958.10533493082],[305042.31494371581,983266.24341078545],[306421.04874514643,983410.21915092354],[307880.29082569876,984708.28059430723],[308145.90082835121,985518.19675640424],[308838.94590114697,985740.78979661444],[308952.87782066024,986088.19157356129],[309678.00026569812,986123.86918023741],[310291.36935695604,986731.88467574015],[310332.02147969813,987003.45716690319],[311248.55542967096,986999.18520408368],[311706.82094607747,986997.05702811922],[311708.95899563527,987457.90751180646],[311713.23819838383,988379.60866600671],[311715.37925236509,988840.45943731617],[311351.13854541781,988936.25380301254],[311198.03287891857,989548.22425197635],[309821.74882399733,991053.67780234199],[309192.19803064322,991219.34294782183],[308658.27701182209,991639.6037107337],[308460.92415573279,992164.37944002752],[308921.95188599499,992756.84523169522],[308987.67602551938,993461.90037890524],[308744.89156048012,993525.7978916259],[307860.25660978712,994326.25026819285],[307374.70005559991,994454.06330029736],[306946.08282049233,994791.4929527269],[306460.53299915849,994919.31859061378],[306031.92729915236,995256.76047155564],[305546.38401192211,995384.59881706804],[305117.78974754084,995722.0529274164],[304632.25309481914,995849.9039799521],[304203.67036656849,996187.37031896552],[302801.78491169104,996319.71769373585],[301461.42066171067,997583.47271552787],[300838.87464280764,997747.46087621676],[300688.98739630135,998934.55615157762],[300309.20983628882,999034.60190010397],[300042.81947951566,999075.01197128056],[299661.59488446533,999459.64006934094],[298670.66915763944,999542.77101730253],[297833.63851095695,1000390.6085252136],[297300.87500021036,1000471.4681126056],[296919.68739463767,1000856.130510962],[296386.92960205511,1000937.0039371365],[295549.97274428722,1001784.9051959997],[294559.09315332124,1001868.1512024821],[293951.91792443336,1002482.2145134431],[293876.48505402863,1003022.5768130035],[293042.32184004883,1003873.2377864198],[292967.41088337515,1004410.001719511],[292589.00029104145,1004797.408816279],[292551.54950716672,1005065.7920552361],[292285.19780973985,1005106.2636107721],[291866.79421709722,1005528.6599168689],[291443.99984812201,1005110.6568086442],[290910.47618250689,1005035.2831718313],[290525.36729635275,1004654.5607700559],[289800.48761709826,1004619.2908375626],[289678.03193491627,1005110.109798966],[289127.62819236214,1004685.597108036],[287427.47633925115,1004569.1170970558],[286838.83533980831,1005033.1823013056],[286353.43018460332,1005161.2900506173],[285925.07712018176,1005499.0049894142],[284981.56533272099,1005629.595936629],[284097.61476718343,1006430.7269960508],[282938.70650848816,1006499.7859712191],[283004.92523398122,1007204.8910055559],[283432.73791228735,1007754.0796823426],[282703.56977173022,1007946.6265108837],[282139.22953691741,1008391.7086908225],[281974.09855432843,1009054.272587068],[281187.59684919217,1009952.3432935893],[281070.20958527894,1012401.6546875846],[280681.27173576655,1012504.3770120719],[280558.96859446442,1012995.2736555698],[280008.53045517206,1012570.869234767],[279682.74835377908,1012447.1684651824],[279094.3099210019,1012911.3943768647],[276318.77726384485,1013052.5134542093],[275890.58591804077,1013390.374445057],[275405.29484632472,1013518.646127527],[274521.70212090446,1014320.0732352124],[273821.02279622236,1014386.8395337344],[273760.06236578024,1014631.7354803385],[273305.44047588482,1015229.1127973038],[273449.15802176425,1017054.7403338233],[273836.88633389125,1017152.5024637883],[273802.23823285964,1017881.878829209],[272968.7975467309,1018733.1261131403],[272931.50992234662,1019001.5608774725],[272834.87111165014,1019389.9309627753],[272018.20390070602,1019467.8124656528],[272066.62767470011,1021118.646821326],[272449.16124284011,1021501.9127117493],[272497.58427870891,1023152.7446671888],[272231.34969892236,1023193.3819709892],[271850.62107331562,1023578.387423497],[271318.15740135359,1023659.6744071561],[270900.17033432343,1024082.3862473886],[270477.25928125525,1023664.5987702619],[270021.61596463784,1023589.095501833],[267742.82656098704,1025907.4444598543],[266294.54458539444,1025994.2692916598],[265913.89490248018,1026379.3521244888],[265647.67964020948,1026420.0407211836],[265586.80350991036,1026664.9664839936],[264675.506774173,1027707.0918711147],[263918.42977142881,1027907.5766106397],[263735.88633025275,1028642.3721712723],[263129.51098814735,1028802.9656844834],[262081.86292305484,1029771.3917507998],[261948.78959605677,1030835.9495726501],[261451.49375786123,1031443.8517527175],[260641.66208361607,1031521.4111892098],[257627.72054834149,1031501.019033466],[257242.41602484972,1031120.6034391848],[256975.74023031787,1031083.1785898166],[255691.51035381266,1031167.358441618],[255525.67857342467,1032367.813369005],[254915.948297775,1032547.5057198192],[254022.05201513562,1033338.5239473537],[252632.42484814156,1033484.0478618155],[252193.50491262824,1033811.1972273114],[251261.75852899853,1033953.8489488063],[249913.07016960828,1035208.9447356897],[248981.35362240576,1035351.6614305979],[248087.62409289443,1036142.86183632],[247495.31258407256,1036317.5717025739],[247329.55615959392,1036916.2081107313],[246555.53824766795,1037826.3657431771],[246489.24144635518,1038065.8201739338],[243742.19778214034,1038083.9720337733],[243701.04576664986,1037812.391962196],[243087.03451438877,1037205.3235895905],[242820.36139641283,1037168.0027318845],[242434.49707183271,1037071.0329252996],[242289.30960688856,1035543.7866271421],[241953.22191873667,1035113.1142009436],[241889.24963324904,1034868.9434708785],[241164.66790659673,1034834.6867144415],[240779.18641273738,1034454.4031726782],[240054.59072635786,1034420.1649209762],[238437.53900522648,1034368.2832597006],[238005.31255034319,1034035.6872156089],[236763.64987671486,1033918.5586204807],[236040.10158645926,1034491.1364046035],[235841.68641768571,1035292.4256518835],[234781.44471577654,1035440.8591067292],[233899.06870754255,1036243.5273622863],[233656.57956152008,1036307.9734284194],[233390.41419132077,1036348.9077790068],[233010.13836549252,1036734.4176267552],[232743.9755709077,1036775.3572860863],[232703.29082634044,1036507.3490939051],[231398.16946486221,1035208.6369478626],[231354.27601311542,1034479.5631915398],[231420.49772306078,1034240.0614350943],[231874.05450674187,1033605.7031038199],[231733.08718691015,1032854.6386997119],[231407.83451875095,1032412.8024799955],[231207.82564242411,1031726.6668134069],[230653.88406598259,1031325.1595745025],[230041.70703854843,1031153.5373465413],[229882.06265175896,1030100.9462978825],[228958.69527753611,1029044.6595686572],[229069.8224275508,1025495.675988864],[229978.55099306221,1024426.6803046301],[229840.54017731833,1024107.0703175628],[229515.21608657646,1023665.2272586218],[229372.92441936466,1022727.0328208079],[229047.58690129488,1022285.1895684795],[228902.10144760541,1020885.9242256363],[228576.7479562115,1020444.0797821326],[228431.25668523007,1019044.8112337623],[227968.77499857178,1018416.7824194363],[228110.24212735309,1017069.1306630042],[229322.98141324962,1016882.9539721275],[229454.79917851643,1014887.9593964407],[229774.0893876428,1014441.6836600704],[229840.36977187579,1014202.1880434033],[229877.38708564843,1013933.643362993],[230293.95206078538,1013505.6975101274],[229639.60248312505,1012859.4006637412],[229372.73268669023,1012822.1263486543],[228914.54821199452,1012825.2638535545],[228870.69755728525,1012096.1822767046],[228487.56710940372,1011713.2158243103],[228396.70375940314,1009793.9813733044],[228013.55147288169,1009411.012885599],[227972.85615667858,1009142.9974454163],[227705.95776357607,1009105.7272537545],[226858.7176203797,1008267.5580206496],[224950.15605166857,1008202.521912238],[224564.28400424973,1007822.2941227873],[223572.19056523597,1007750.9782962905],[223186.29849574011,1007370.759158056],[222652.45123130933,1007296.2760510923],[220420.49059757817,1005084.5317302505],[220153.54502082395,1005047.3029847944],[220089.43031754915,1004803.1232413143],[219752.87834183656,1004372.5150189231],[219605.0401094252,1003304.8948585856],[218858.57197967236,1003117.7845857693],[218762.38742065843,1002751.4951304857],[218056.32642708573,1002697.8546910016],[216708.63543842215,1001441.2410624094],[215754.79625788459,1001330.7718496525],[215330.28509194421,1000989.8931105295],[213459.68198937678,1000886.0031117409],[212429.7766553805,999957.8231394079],[212263.38703496795,999465.67870202044],[212717.69990895491,998893.0531836045],[212827.34259195626,997933.51593566546],[213166.21285067708,997506.43419879035],[213280.13937504101,997144.1951201125],[212581.9728697082,996339.750796256],[211978.49340564321,996838.65067295893],[213731.0668963652,992148.95887061208],[212714.99455849256,991313.68483006151],[212623.12350217003,991238.16360826767],[211847.30086878303,990442.08870464505],[211290.07795735874,989562.15299063094],[211308.61791444884,987854.15002636553],[211911.4704454859,987500.97726094536],[212095.42141827306,986918.74950282578],[211584.57612326893,986616.80771416856],[212474.03803184332,986719.19773366791],[212986.05264337076,987112.46468797815],[213541.98236988467,986432.37632135639],[213665.88427235099,984909.70796817029],[214263.98633448704,984400.91866752272],[215026.8646627164,984198.33264223742],[214803.63240914431,983989.1788944396],[215257.10084933258,983744.22531535057],[216085.72689567058,983121.50451641332],[216738.39415159036,982306.40301775001],[215390.71127786033,982356.30772382836],[214362.94472447276,982683.2175129191],[212647.89826924528,983573.43987017055],[212604.30652137991,983521.62687565247],[212724.66238582885,981682.20832631842],[213598.51658920443,981450.15760488086],[213362.44716404995,981148.30475586362],[213794.37803971529,980795.85242609051],[214774.6880397732,980252.38487141149],[215217.59291649348,980006.85987092101],[215895.02660514507,978880.86796157062],[215518.68920995318,978002.19044798729],[215362.3541142093,977637.18488753238],[214102.26363455778,976781.33577820251],[211365.26268226816,975476.52420014131],[209811.36775630171,973636.59752450394],[209283.6293244689,971795.94624237297],[209847.20391088392,971133.73091961362],[209555.66904645984,971052.15870654141],[209696.60044940776,970696.71949751989],[210990.98668658943,971291.08621651912],[212272.74523793481,972651.12168241979],[213097.05894378223,973302.85217772063],[214293.78116154933,973402.60367202305],[216674.80087035493,973102.46784749522],[216670.09556710912,972418.02672182093],[213959.77193726215,971747.7510909962],[210924.74319396797,970147.71180246887],[209248.85500562802,968182.50545574259],[210616.42812718416,966416.63426444319],[209889.7695304763,965656.14695105143],[207181.81041277049,961590.57260137505],[206414.67631325126,960830.38657582225],[206069.8322671791,961494.81352621666],[205529.90724529169,961818.36766850203],[204343.73794462666,961371.90989186487],[202606.77575993614,960357.45356995042],[201820.71001507388,959471.34523079579],[201089.55543201859,958364.95917988673],[201467.58317549143,957837.04599195474],[200328.45604271966,956836.22312012676],[200054.0365726343,956798.09622016456],[199116.02769924497,955378.86643891188],[199092.56506755576,955154.1045304836],[198629.10322683008,954526.12643239996],[198741.03973745101,950972.49545262184],[198747.6591565712,950900.38658861932],[199430.35846907587,950463.17286458623],[201678.41408679943,949528.49304411735],[202152.68170568906,949403.5542746901],[202197.17192088108,949329.62927893887],[202680.94695725868,949297.60107767442],[202854.4963720995,948671.06735227478],[206497.43035985547,944877.5486426102],[210629.28833933303,940990.49776267051],[210774.77208110923,940947.65365218208],[211670.62878623587,940156.00181663851],[212367.20640939451,940082.96431767789],[212458.48298053694,939715.37810291362],[212823.15381080768,939618.76961869409],[212893.78728930611,939383.41734041611],[213661.34887101297,938464.65321391076],[213802.63323689188,937993.95608679752],[214114.24709170626,937539.38390876155],[214208.77057848038,936902.14865787828],[214940.05252448114,935941.12525437213],[215351.39924842591,935513.48980899644],[215783.22622476204,935376.40434043296],[216231.63198366942,935057.39667025139],[216833.79485566332,934866.27990147064],[216937.5306274399,934167.28123669967],[217761.88832210872,933771.1529828246],[218060.97958676942,933978.05443225533],[218322.8633300527,934121.40674446791],[218966.86822727433,933663.30025982461],[219852.42396110686,933661.78372942994],[219934.55415474798,933671.16101151903],[220356.45094094862,933963.04761663568],[221284.163958586,934102.08499979624],[221736.70465071796,934415.17612159904],[226589.28788353637,934529.05877907365],[226755.82246846217,934410.64016996871],[228862.30742070044,934094.76589202019],[230091.39494008018,933549.77883560432],[231946.82377775456,933421.29795725306],[232173.60627432307,932666.98539968126],[233210.44802833005,932498.11352131132],[233658.96517723968,932179.33457357797],[234125.72937126894,932031.39343366784],[234574.25644993916,931712.62749098579],[235041.02648855257,931564.69857199816],[235198.6136433598,931452.70797824161],[235207.31357881654,932866.52679966821],[236116.82976536662,932045.99986863753],[236974.1312295408,931477.94955157361],[239093.33713593124,930515.06961047894],[237597.0521455399,930699.74222282472],[237194.6583402814,930882.29971114418],[236703.90912686684,931276.9992060255],[236026.96087082726,931281.14260997833],[236156.53840292926,931171.99785452103],[236874.48283598793,931092.41147454118],[237779.30122950446,930309.86251558235],[238246.08888963447,930161.97580959031],[238694.65753612778,929843.26696445141],[239620.52891844782,929692.61959014693],[240069.10944865583,929373.92922713596],[240535.9089826369,929226.07231107459],[240984.4995386524,928907.39485130622],[241910.38590218098,928756.80433865916],[242358.9883396411,928438.14526028559],[243284.88179444193,928287.58835940238],[243733.49621329736,927968.94776125869],[244200.31364833622,927821.13820213487],[244648.93798964657,927502.51030730584],[245115.76126388609,927354.71276657283],[245564.39552793329,927036.0976749754],[246031.22464176195,926888.31225247087],[246398.28565176026,926627.64487064537],[248104.49400058191,926679.74804642657],[249256.65842596744,929243.66295645304],[249098.30793036803,929474.16751219577],[248960.7746834968,930659.00150308479],[249423.65228686211,931316.30403515173],[249503.82912981921,931571.72507869184],[249650.16724460176,933441.81572168879],[249647.00681686797,933460.66423317837],[249125.17548170092,934084.09028894803],[248989.26685710001,935537.99332319153],[249283.73657015906,935627.42659704736],[249000.45657364797,937317.36316107924],[247350.99016245853,939596.12564977806],[247355.46856484964,940352.44774308475],[248027.68674589347,941095.82122451754],[248215.31918932451,942024.46693460736]],[[260945.25983934753,955945.60010033567],[261069.61188465817,955685.96576807625],[260954.40005765419,955456.35739456734],[260598.24065335206,955639.95891345886],[260945.25983934753,955945.60010033567]]]},"properties":{"FID":0,"HYBAS_ID":7090885480,"NEXT_DOWN":7090885540,"NEXT_SINK":7090001080,"MAIN_BAS":7090001080,"DIST_SINK":16.399999999999999,"DIST_MAIN":16.399999999999999,"SUB_AREA":403.5,"UP_AREA":403.60000000000002,"PFAF_ID":"771113946","ENDO":0,"COAST":0,"ORDER_":2,"SORT":132,"layer":"hybas_na_lev09_v1c","path":"C:\\Users\\cwbei\\Dropbox\\Consulting\\Protected area connectivity\\Watersheds\\hybas_na_lev01-12_v1c\\hybas_na_lev09_v1c.shp","ID":"Amistosa","Shape_Leng":555235.10470000003,"Shape_Area":6310655578.8199997}}]}